CCSDS_OMM_VERS = 2.0
CREATION_DATE  = 
ORIGINATOR     = 

OBJECT_NAME    = SL-14 R/B
OBJECT_ID      = 1986-046B
CENTER_NAME    = EARTH
REF_FRAME      = TEME
TIME_SYSTEM    = UTC
MEAN_ELEMENT_THEORY = SGP/SGP4

EPOCH          = 2026-01-21T12:33:46.393632
MEAN_MOTION    = 14.85536980
ECCENTRICITY   = .0023749
INCLINATION    = 82.4835
RA_OF_ASC_NODE = 124.7450
ARG_OF_PERICENTER = 27.3626
MEAN_ANOMALY   = 332.8835

EPHEMERIS_TYPE = 0
CLASSIFICATION_TYPE = U
NORAD_CAT_ID   = 16792
ELEMENT_SET_NO = 999
REV_AT_EPOCH   = 11940
BSTAR          = .99844E-4
MEAN_MOTION_DOT = .891E-5
MEAN_MOTION_DDOT = 0

CCSDS_OMM_VERS = 2.0
CREATION_DATE  = 
ORIGINATOR     = 

OBJECT_NAME    = SL-14 R/B
OBJECT_ID      = 1986-055B
CENTER_NAME    = EARTH
REF_FRAME      = TEME
TIME_SYSTEM    = UTC
MEAN_ELEMENT_THEORY = SGP/SGP4

EPOCH          = 2026-01-21T12:31:28.437024
MEAN_MOTION    = 14.85581642
ECCENTRICITY   = .0020132
INCLINATION    = 82.5213
RA_OF_ASC_NODE = 170.9904
ARG_OF_PERICENTER = 125.7615
MEAN_ANOMALY   = 302.6152

EPHEMERIS_TYPE = 0
CLASSIFICATION_TYPE = U
NORAD_CAT_ID   = 16882
ELEMENT_SET_NO = 999
REV_AT_EPOCH   = 11236
BSTAR          = .10952E-3
MEAN_MOTION_DOT = .975E-5
MEAN_MOTION_DDOT = 0

CCSDS_OMM_VERS = 2.0
CREATION_DATE  = 
ORIGINATOR     = 

OBJECT_NAME    = AJISAI (EGS)
OBJECT_ID      = 1986-061A
CENTER_NAME    = EARTH
REF_FRAME      = TEME
TIME_SYSTEM    = UTC
MEAN_ELEMENT_THEORY = SGP/SGP4

EPOCH          = 2026-01-21T06:34:12.118368
MEAN_MOTION    = 12.44515173
ECCENTRICITY   = .0011274
INCLINATION    = 50.0069
RA_OF_ASC_NODE = 239.1535
ARG_OF_PERICENTER = 165.3089
MEAN_ANOMALY   = 352.1733

EPHEMERIS_TYPE = 0
CLASSIFICATION_TYPE = U
NORAD_CAT_ID   = 16908
ELEMENT_SET_NO = 999
REV_AT_EPOCH   = 46209
BSTAR          = .89034E-4
MEAN_MOTION_DOT = -.85E-6
MEAN_MOTION_DDOT = 0

CCSDS_OMM_VERS = 2.0
CREATION_DATE  = 
ORIGINATOR     = 

OBJECT_NAME    = COSMOS 1812
OBJECT_ID      = 1987-003A
CENTER_NAME    = EARTH
REF_FRAME      = TEME
TIME_SYSTEM    = UTC
MEAN_ELEMENT_THEORY = SGP/SGP4

EPOCH          = 2026-01-21T08:49:09.919488
MEAN_MOTION    = 15.86377069
ECCENTRICITY   = .0001622
INCLINATION    = 82.4806
RA_OF_ASC_NODE = 248.8048
ARG_OF_PERICENTER = 39.0252
MEAN_ANOMALY   = 321.1135

EPHEMERIS_TYPE = 0
CLASSIFICATION_TYPE = U
NORAD_CAT_ID   = 17295
ELEMENT_SET_NO = 999
REV_AT_EPOCH   = 13691
BSTAR          = .88833E-3
MEAN_MOTION_DOT = .226598E-2
MEAN_MOTION_DDOT = 0

CCSDS_OMM_VERS = 2.0
CREATION_DATE  = 
ORIGINATOR     = 

OBJECT_NAME    = SL-14 R/B
OBJECT_ID      = 1987-024B
CENTER_NAME    = EARTH
REF_FRAME      = TEME
TIME_SYSTEM    = UTC
MEAN_ELEMENT_THEORY = SGP/SGP4

EPOCH          = 2026-01-21T08:55:42.643776
MEAN_MOTION    = 14.86077422
ECCENTRICITY   = .0019535
INCLINATION    = 82.5302
RA_OF_ASC_NODE = 137.2263
ARG_OF_PERICENTER = 60.0531
MEAN_ANOMALY   = 300.2622

EPHEMERIS_TYPE = 0
CLASSIFICATION_TYPE = U
NORAD_CAT_ID   = 17567
ELEMENT_SET_NO = 999
REV_AT_EPOCH   = 8110
BSTAR          = .10735E-3
MEAN_MOTION_DOT = .967E-5
MEAN_MOTION_DDOT = 0

CCSDS_OMM_VERS = 2.0
CREATION_DATE  = 
ORIGINATOR     = 

OBJECT_NAME    = COSMOS 1833
OBJECT_ID      = 1987-027A
CENTER_NAME    = EARTH
REF_FRAME      = TEME
TIME_SYSTEM    = UTC
MEAN_ELEMENT_THEORY = SGP/SGP4

EPOCH          = 2026-01-21T10:21:01.826496
MEAN_MOTION    = 14.13048494
ECCENTRICITY   = .0024388
INCLINATION    = 70.9193
RA_OF_ASC_NODE = 65.3447
ARG_OF_PERICENTER = 277.2391
MEAN_ANOMALY   = 82.5958

EPHEMERIS_TYPE = 0
CLASSIFICATION_TYPE = U
NORAD_CAT_ID   = 17589
ELEMENT_SET_NO = 999
REV_AT_EPOCH   = 364
BSTAR          = .17915E-3
MEAN_MOTION_DOT = .287E-5
MEAN_MOTION_DDOT = 0

CCSDS_OMM_VERS = 2.0
CREATION_DATE  = 
ORIGINATOR     = 

OBJECT_NAME    = SL-16 R/B
OBJECT_ID      = 1987-027B
CENTER_NAME    = EARTH
REF_FRAME      = TEME
TIME_SYSTEM    = UTC
MEAN_ELEMENT_THEORY = SGP/SGP4

EPOCH          = 2026-01-21T09:36:52.215840
MEAN_MOTION    = 14.17159505
ECCENTRICITY   = .0006167
INCLINATION    = 71.0032
RA_OF_ASC_NODE = 16.1425
ARG_OF_PERICENTER = 216.4375
MEAN_ANOMALY   = 143.6330

EPHEMERIS_TYPE = 0
CLASSIFICATION_TYPE = U
NORAD_CAT_ID   = 17590
ELEMENT_SET_NO = 999
REV_AT_EPOCH   = 864
BSTAR          = -.44812E-4
MEAN_MOTION_DOT = -.138E-5
MEAN_MOTION_DDOT = 0

CCSDS_OMM_VERS = 2.0
CREATION_DATE  = 
ORIGINATOR     = 

OBJECT_NAME    = SL-14 R/B
OBJECT_ID      = 1987-038B
CENTER_NAME    = EARTH
REF_FRAME      = TEME
TIME_SYSTEM    = UTC
MEAN_ELEMENT_THEORY = SGP/SGP4

EPOCH          = 2026-01-21T08:13:20.511264
MEAN_MOTION    = 14.85310591
ECCENTRICITY   = .001838
INCLINATION    = 82.5032
RA_OF_ASC_NODE = 341.3968
ARG_OF_PERICENTER = 325.4381
MEAN_ANOMALY   = 34.5639

EPHEMERIS_TYPE = 0
CLASSIFICATION_TYPE = U
NORAD_CAT_ID   = 17912
ELEMENT_SET_NO = 999
REV_AT_EPOCH   = 7220
BSTAR          = .11165E-3
MEAN_MOTION_DOT = .985E-5
MEAN_MOTION_DDOT = 0

CCSDS_OMM_VERS = 2.0
CREATION_DATE  = 
ORIGINATOR     = 

OBJECT_NAME    = COSMOS 1844
OBJECT_ID      = 1987-041A
CENTER_NAME    = EARTH
REF_FRAME      = TEME
TIME_SYSTEM    = UTC
MEAN_ELEMENT_THEORY = SGP/SGP4

EPOCH          = 2026-01-21T12:23:26.763072
MEAN_MOTION    = 14.14535694
ECCENTRICITY   = .00283
INCLINATION    = 70.8993
RA_OF_ASC_NODE = 133.6781
ARG_OF_PERICENTER = 93.5683
MEAN_ANOMALY   = 266.8676

EPHEMERIS_TYPE = 0
CLASSIFICATION_TYPE = U
NORAD_CAT_ID   = 17973
ELEMENT_SET_NO = 999
REV_AT_EPOCH   = 99691
BSTAR          = -.78801E-4
MEAN_MOTION_DOT = -.2E-5
MEAN_MOTION_DDOT = 0

CCSDS_OMM_VERS = 2.0
CREATION_DATE  = 
ORIGINATOR     = 

OBJECT_NAME    = SL-14 R/B
OBJECT_ID      = 1987-055B
CENTER_NAME    = EARTH
REF_FRAME      = TEME
TIME_SYSTEM    = UTC
MEAN_ELEMENT_THEORY = SGP/SGP4

EPOCH          = 2026-01-21T11:05:49.486848
MEAN_MOTION    = 14.85566853
ECCENTRICITY   = .0021001
INCLINATION    = 82.4976
RA_OF_ASC_NODE = 33.5432
ARG_OF_PERICENTER = 165.5248
MEAN_ANOMALY   = 194.6575

EPHEMERIS_TYPE = 0
CLASSIFICATION_TYPE = U
NORAD_CAT_ID   = 18153
ELEMENT_SET_NO = 999
REV_AT_EPOCH   = 6292
BSTAR          = .88989E-4
MEAN_MOTION_DOT = .796E-5
MEAN_MOTION_DDOT = 0

CCSDS_OMM_VERS = 2.0
CREATION_DATE  = 
ORIGINATOR     = 

OBJECT_NAME    = COSMOS 1867
OBJECT_ID      = 1987-060A
CENTER_NAME    = EARTH
REF_FRAME      = TEME
TIME_SYSTEM    = UTC
MEAN_ELEMENT_THEORY = SGP/SGP4

EPOCH          = 2026-01-21T11:51:36.648288
MEAN_MOTION    = 14.31494030
ECCENTRICITY   = .0013924
INCLINATION    = 65.0105
RA_OF_ASC_NODE = 78.8749
ARG_OF_PERICENTER = 274.9374
MEAN_ANOMALY   = 85.0120

EPHEMERIS_TYPE = 0
CLASSIFICATION_TYPE = U
NORAD_CAT_ID   = 18187
ELEMENT_SET_NO = 999
REV_AT_EPOCH   = 1318
BSTAR          = .53548E-4
MEAN_MOTION_DOT = .42E-6
MEAN_MOTION_DDOT = 0

CCSDS_OMM_VERS = 2.0
CREATION_DATE  = 
ORIGINATOR     = 

OBJECT_NAME    = SL-14 R/B
OBJECT_ID      = 1988-001B
CENTER_NAME    = EARTH
REF_FRAME      = TEME
TIME_SYSTEM    = UTC
MEAN_ELEMENT_THEORY = SGP/SGP4

EPOCH          = 2026-01-21T07:40:32.522304
MEAN_MOTION    = 14.85469076
ECCENTRICITY   = .0019051
INCLINATION    = 82.5108
RA_OF_ASC_NODE = 239.9197
ARG_OF_PERICENTER = 38.8271
MEAN_ANOMALY   = 321.4310

EPHEMERIS_TYPE = 0
CLASSIFICATION_TYPE = U
NORAD_CAT_ID   = 18749
ELEMENT_SET_NO = 999
REV_AT_EPOCH   = 3499
BSTAR          = .85168E-4
MEAN_MOTION_DOT = .761E-5
MEAN_MOTION_DDOT = 0

