SL-14 R/B               
1 16792U 86046B   26021.52345363  .00000891  00000+0  99844-4 0  9996
2 16792  82.4835 124.7450 0023749  27.3626 332.8835 14.85536980119407
SL-14 R/B               
1 16882U 86055B   26021.52185691  .00000975  00000+0  10952-3 0  9997
2 16882  82.5213 170.9904 0020132 125.7615 302.6152 14.85581642112369
AJISAI (EGS)            
1 16908U 86061A   26021.27375137 -.00000085  00000+0  89034-4 0  9992
2 16908  50.0069 239.1535 0011274 165.3089 352.1733 12.44515173462099
COSMOS 1812             
1 17295U 87003A   26021.36747592  .00226598  00000+0  88833-3 0  9990
2 17295  82.4806 248.8048 0001622  39.0252 321.1135 15.86377069136918
SL-14 R/B               
1 17567U 87024B   26021.37202134  .00000967  00000+0  10735-3 0  9990
2 17567  82.5302 137.2263 0019535  60.0531 300.2622 14.86077422 81106
COSMOS 1833             
1 17589U 87027A   26021.43127114  .00000287  00000+0  17915-3 0  9990
2 17589  70.9193  65.3447 0024388 277.2391  82.5958 14.13048494  3644
SL-16 R/B               
1 17590U 87027B   26021.40060435 -.00000138  00000+0 -44812-4 0  9995
2 17590  71.0032  16.1425 0006167 216.4375 143.6330 14.17159505  8640
SL-14 R/B               
1 17912U 87038B   26021.34259851  .00000985  00000+0  11165-3 0  9992
2 17912  82.5032 341.3968 0018380 325.4381  34.5639 14.85310591 72200
COSMOS 1844             
1 17973U 87041A   26021.51628198 -.00000200  00000+0 -78801-4 0  9999
2 17973  70.8993 133.6781 0028300  93.5683 266.8676 14.14535694996918
SL-14 R/B               
1 18153U 87055B   26021.46237832  .00000796  00000+0  88989-4 0  9996
2 18153  82.4976  33.5432 0021001 165.5248 194.6575 14.85566853 62928
COSMOS 1867             
1 18187U 87060A   26021.49417417  .00000042  00000+0  53548-4 0  9998
2 18187  65.0105  78.8749 0013924 274.9374  85.0120 14.31494030 13180
SL-14 R/B               
1 18749U 88001B   26021.31982086  .00000761  00000+0  85168-4 0  9999
2 18749  82.5108 239.9197 0019051  38.8271 321.4310 14.85469076 34999
